YOTSUBA-KULOVER         
1 65941U 98067XN  26052.67566251  .00130422  00000+0  86853-3 0  9992
2 65941  51.6233 139.9500 0005554 343.5325  16.5492 15.74466328 20979
BOTAN                   
1 65942U 98067XP  26052.59975990  .00609668  16728-3  14362-2 0  9994
2 65942  51.6138 134.8513 0009860   1.0978 359.0050 15.96170388 21031
E-KAGAKU-1              
1 65943U 98067XQ  26052.61412559  .00131011  00000+0  87964-3 0  9998
2 65943  51.6258 140.3031 0005620 353.0788   7.0133 15.74273931 20968
HTV-X1                  
1 66174U 25241A   26052.76529869  .00010666  00000+0  20704-3 0  9999
2 66174  51.6320 151.0701 0008511 119.8639 240.3195 15.48189327   518
SHENZHOU-22             
1 66645U 25272A   26052.90580858  .00015335  00000+0  18817-3 0  9997
2 66645  41.4670 304.1498 0004996 166.7243 193.3728 15.59974430267642
SOYUZ-MS 28             
1 66664U 25275A   26052.76529869  .00010666  00000+0  20704-3 0  9990
2 66664  51.6320 151.0701 0008511 119.8639 240.3195 15.48189327  1287
DUPLEX                  
1 66906U 98067XS  26052.84744354  .00028546  00000+0  42187-3 0  9990
2 66906  51.6293 148.6235 0001620  74.8092 285.3078 15.55089181 12664
ISS OBJECT XT           
1 66907U 98067XT  26052.63645661  .00108292  00000+0  10908-2 0  9991
2 66907  51.6258 147.2087 0003456 351.6111   8.4825 15.64558246 12660
ISS OBJECT XU           
1 66908U 98067XU  26052.63553904  .00105809  00000+0  10643-2 0  9997
2 66908  51.6257 147.1994 0003442 355.5668   4.5295 15.64604017 12667
SILVERSAT               
1 66909U 98067XV  26052.46917666  .00148121  00000+0  13740-2 0  9993
2 66909  51.6263 147.5901 0004275 349.0523  11.0379 15.66462804 12642
